NORAD_CAT_ID,OBJECT_NAME,OBJECT_TYPE,EPOCH,MEAN_MOTION,ECCENTRICITY,INCLINATION,RA_OF_ASC_NODE,ARG_OF_PERICENTER,MEAN_ANOMALY,BSTAR,MEAN_MOTION_DOT,MEAN_MOTION_DDOT,TLE_LINE0,TLE_LINE1,TLE_LINE2,SEMIMAJOR_AXIS,PERIOD,APOGEE,PERIGEE,DECAYED
54073.0,STARLINK-5146,PAYLOAD,2023-02-11 19:20:16,15.08849837,0.0001797,53.2185,335.7384,111.573,248.5454,0.0022286,0.00035368,0.0,0 STARLINK-5146,1 54073U 22136Y   23042.80574265  .00035368  00000-0  22286-2 0  9998,2 54073  53.2185 335.7384 0001797 111.5730 248.5454 15.08849837 18026,6917.85,95.437,540.958,538.472,0.0
54073.0,STARLINK-5146,PAYLOAD,2023-02-12 04:52:34,15.08849064,0.0001598,53.218,333.9543,107.6519,252.4648,0.00081042,0.00012637,0.0,0 STARLINK-5146,1 54073U 22136Y   23043.20318079  .00012637  00000-0  81042-3 0  9992,2 54073  53.2180 333.9543 0001598 107.6519 252.4648 15.08849064 18085,6917.853,95.437,540.823,538.612,0.0
54073.0,STARLINK-5146,PAYLOAD,2023-02-12 12:49:31,15.08825484,0.0002081,53.218,332.4659,103.1068,257.0156,-5.2497e-05,-1.123e-05,0.0,0 STARLINK-5146,1 54073U 22136Y   23043.53438937 -.00001123  00000-0 -52497-4 0  9997,2 54073  53.2180 332.4659 0002081 103.1068 257.0156 15.08825484 18136,6917.925,95.438,541.229,538.35,0.0
54073.0,STARLINK-5146,PAYLOAD,2023-02-13 04:43:22,15.08839636,0.0001542,53.2187,329.4931,92.5175,267.5994,0.00063236,9.79e-05,0.0,0 STARLINK-5146,1 54073U 22136Y   23044.19679066  .00009790  00000-0  63236-3 0  9998,2 54073  53.2187 329.4931 0001542  92.5175 267.5994 15.08839636 18234,6917.882,95.438,540.813,538.68,0.0
54073.0,STARLINK-5146,PAYLOAD,2023-02-14 02:58:46,15.08850023,0.0001331,53.2186,325.3291,76.4866,283.6275,0.00059687,9.227e-05,0.0,0 STARLINK-5146,1 54073U 22136Y   23045.12415188  .00009227  00000-0  59687-3 0  9995,2 54073  53.2186 325.3291 0001331  76.4866 283.6275 15.08850023 18370,6917.85,95.437,540.636,538.794,0.0
54073.0,STARLINK-5146,PAYLOAD,2023-02-14 18:52:38,15.08841664,0.0001741,53.2188,322.3557,75.2851,284.8334,0.00071494,0.00011109,0.0,0 STARLINK-5146,1 54073U 22136Y   23045.78655552  .00011109  00000-0  71494-3 0  9990,2 54073  53.2188 322.3557 0001741  75.2851 284.8334 15.08841664 18471,6917.875,95.437,540.945,538.536,0.0
54073.0,STARLINK-5146,PAYLOAD,2023-02-15 01:14:10,15.08857624,0.0001192,53.2189,321.1666,101.553,258.5596,0.0015473,0.00024435,0.0,0 STARLINK-5146,1 54073U 22136Y   23046.05151087  .00024435  00000-0  15473-2 0  9995,2 54073  53.2189 321.1666 0001192 101.5530 258.5596 15.08857624 18513,6917.827,95.436,540.516,538.867,0.0
54073.0,STARLINK-5146,PAYLOAD,2023-02-15 10:46:29,15.088606,0.000133,53.2192,319.3828,71.9132,288.2005,0.001141,0.00017928,0.0,0 STARLINK-5146,1 54073U 22136Y   23046.44894959  .00017928  00000-0  11410-2 0  9996,2 54073  53.2192 319.3828 0001330  71.9132 288.2005 15.08860600 18577,6917.817,95.436,540.602,538.762,0.0
54073.0,STARLINK-5146,PAYLOAD,2023-02-15 21:54:11,15.08853888,0.0001228,53.2185,317.3021,79.0967,281.0164,0.00054664,8.426e-05,0.0,0 STARLINK-5146,1 54073U 22136Y   23046.91262855  .00008426  00000-0  54664-3 0  9994,2 54073  53.2185 317.3021 0001228  79.0967 281.0164 15.08853888 18165,6917.838,95.437,540.552,538.853,0.0
54073.0,STARLINK-5146,PAYLOAD,2023-02-15 23:29:34,15.08860557,0.0001267,53.2186,317.0057,88.2665,271.8472,0.00089521,0.00013996,0.0,0 STARLINK-5146,1 54073U 22136Y   23046.97886720  .00013996  00000-0  89521-3 0  9991,2 54073  53.2186 317.0057 0001267  88.2665 271.8472 15.08860557 18656,6917.818,95.436,540.559,538.806,0.0
54073.0,STARLINK-5146,PAYLOAD,2023-02-16 10:37:16,15.08848922,0.0001166,53.2182,314.923,87.2381,272.8745,0.00095696,0.00014979,0.0,0 STARLINK-5146,1 54073U 22136Y   23047.44254895  .00014979  00000-0  95696-3 0  9998,2 54073  53.2182 314.9230 0001166  87.2381 272.8745 15.08848922 18727,6917.853,95.437,540.525,538.911,0.0
54073.0,STARLINK-5146,PAYLOAD,2023-02-16 21:44:58,15.08817332,8.79e-05,53.2182,312.8407,107.0291,253.0798,0.0010325,0.00016172,0.0,0 STARLINK-5146,1 54073U 22136Y   23047.90623816  .00016172  00000-0  10325-2 0  9994,2 54073  53.2182 312.8407 0000879 107.0291 253.0798 15.08817332 18316,6917.95,95.439,540.423,539.207,0.0
54073.0,STARLINK-5146,PAYLOAD,2023-02-16 23:20:22,15.08821736,9.67e-05,53.218,312.5436,100.2258,259.8844,0.0016594,0.00026207,0.0,0 STARLINK-5146,1 54073U 22136Y   23047.97247979  .00026207  00000-0  16594-2 0  9997,2 54073  53.2180 312.5436 0000967 100.2258 259.8844 15.08821736 18802,6917.936,95.439,540.47,539.132,0.0
54073.0,STARLINK-5146,PAYLOAD,2023-02-17 10:28:04,15.08827121,0.0001355,53.2175,310.4621,106.0783,254.0358,0.0011786,0.00018513,0.0,0 STARLINK-5146,1 54073U 22136Y   23048.43616664  .00018513  00000-0  11786-2 0  9999,2 54073  53.2175 310.4621 0001355 106.0783 254.0358 15.08827121 18876,6917.92,95.438,540.722,538.847,0.0
54073.0,STARLINK-5146,PAYLOAD,2023-02-17 21:35:46,15.08845394,0.0001097,53.2179,308.3809,119.3192,240.791,0.0015096,0.00023822,0.0,0 STARLINK-5146,1 54073U 22136Y   23048.89984669  .00023822  00000-0  15096-2 0  9999,2 54073  53.2179 308.3809 0001097 119.3192 240.7910 15.08845394 18461,6917.864,95.437,540.488,538.97,0.0
54073.0,STARLINK-5146,PAYLOAD,2023-02-18 10:18:51,15.08849732,0.0001111,53.2172,306.0006,107.8431,252.2683,0.0007057,0.00010964,0.0,0 STARLINK-5146,1 54073U 22136Y   23049.42976535  .00010964  00000-0  70570-3 0  9994,2 54073  53.2172 306.0006 0001111 107.8431 252.2683 15.08849732 19021,6917.851,95.437,540.484,538.947,0.0
54073.0,STARLINK-5146,PAYLOAD,2023-02-18 21:26:33,15.08849728,0.0001307,53.2177,303.9225,94.2769,265.8373,0.0003519,5.318e-05,0.0,0 STARLINK-5146,1 54073U 22136Y   23049.89344477  .00005318  00000-0  35190-3 0  9995,2 54073  53.2177 303.9225 0001307  94.2769 265.8373 15.08849728 19093,6917.851,95.437,540.62,538.811,0.0
54073.0,STARLINK-5146,PAYLOAD,2023-02-19 10:09:38,15.08864689,0.0001242,53.2175,301.5434,95.8927,264.2207,0.00060354,9.337e-05,0.0,0 STARLINK-5146,1 54073U 22136Y   23050.42335670  .00009337  00000-0  60354-3 0  9996,2 54073  53.2175 301.5434 0001242  95.8927 264.2207 15.08864689 18695,6917.805,95.436,540.529,538.811,0.0
54073.0,STARLINK-5146,PAYLOAD,2023-02-19 22:52:42,15.08849426,9.02e-05,53.217,299.1645,108.2265,251.8826,7.2101e-05,8.6e-06,0.0,0 STARLINK-5146,1 54073U 22136Y   23050.95327499  .00000860  00000-0  72101-4 0  9990,2 54073  53.2170 299.1645 0000902 108.2265 251.8826 15.08849426 19256,6917.852,95.437,540.341,539.093,0.0
54073.0,STARLINK-5146,PAYLOAD,2023-02-20 10:00:24,15.08848445,8.28e-05,53.2168,297.0822,111.8696,248.2384,0.00010111,1.322e-05,0.0,0 STARLINK-5146,1 54073U 22136Y   23051.41695414  .00001322  00000-0  10111-3 0  9993,2 54073  53.2168 297.0822 0000828 111.8696 248.2384 15.08848445 18845,6917.855,95.437,540.292,539.147,0.0
54073.0,STARLINK-5146,PAYLOAD,2023-02-20 22:43:30,15.08845971,0.0001019,53.2184,294.7017,110.5444,249.5657,-3.0365e-05,-7.71e-06,0.0,0 STARLINK-5146,1 54073U 22136Y   23051.94687508 -.00000771  00000-0 -30365-4 0  9999,2 54073  53.2184 294.7017 0001019 110.5444 249.5657 15.08845971 19404,6917.862,95.437,540.432,539.022,0.0
54073.0,STARLINK-5146,PAYLOAD,2023-02-21 01:54:16,15.08848189,0.0001096,53.2176,294.1064,111.2013,248.9097,1.7658e-05,-7e-08,0.0,0 STARLINK-5146,1 54073U 22136Y   23052.07935349 -.00000007  00000-0  17658-4 0  9994,2 54073  53.2176 294.1064 0001096 111.2013 248.9097 15.08848189 18949,6917.855,95.437,540.479,538.962,0.0
54073.0,STARLINK-5146,PAYLOAD,2023-02-21 20:58:53,15.08845738,0.0001066,53.2166,290.538,110.1156,249.995,0.00016239,2.298e-05,0.0,0 STARLINK-5146,1 54073U 22136Y   23052.87423371  .00002298  00000-0  16239-3 0  9995,2 54073  53.2166 290.5380 0001066 110.1156 249.9950 15.08845738 19062,6917.863,95.437,540.465,538.99,0.0
54073.0,STARLINK-5146,PAYLOAD,2023-02-22 01:45:02,15.08851578,9.45e-05,53.217,289.6466,98.3123,261.7976,0.00024548,3.622e-05,0.0,0 STARLINK-5146,1 54073U 22136Y   23053.07295048  .00003622  00000-0  24548-3 0  9990,2 54073  53.2170 289.6466 0000945  98.3123 261.7976 15.08851578 19572,6917.845,95.437,540.364,539.056,0.0
54073.0,STARLINK-5146,PAYLOAD,2023-02-22 16:03:32,15.08830914,0.0001102,53.2149,286.9689,113.5832,246.5276,9.868e-06,-1.31e-06,0.0,0 STARLINK-5146,1 54073U 22136Y   23053.66912317 -.00000131  00000-0  98680-5 0  9993,2 54073  53.2149 286.9689 0001102 113.5832 246.5276 15.08830914 19663,6917.908,95.438,540.536,539.011,0.0
54073.0,STARLINK-5146,PAYLOAD,2023-02-22 22:25:04,15.08834797,8.51e-05,53.2138,285.7797,106.4061,253.7025,6.4927e-05,7.46e-06,0.0,0 STARLINK-5146,1 54073U 22136Y   23053.93408070  .00000746  00000-0  64927-4 0  9996,2 54073  53.2138 285.7797 0000851 106.4061 253.7025 15.08834797 19220,6917.896,95.438,540.35,539.173,0.0
54073.0,STARLINK-5146,PAYLOAD,2023-02-23 01:35:50,15.08836196,9.01e-05,53.2156,285.1865,101.3555,258.7538,1.2034e-05,-9.6e-07,0.0,0 STARLINK-5146,1 54073U 22136Y   23054.06656026 -.00000096  00000-0  12034-4 0  9998,2 54073  53.2156 285.1865 0000901 101.3555 258.7538 15.08836196 19249,6917.892,95.438,540.38,539.134,0.0
54073.0,STARLINK-5146,PAYLOAD,2023-02-23 15:54:19,15.08839154,8.86e-05,53.2156,282.5104,99.7336,260.3756,3.6444e-05,2.92e-06,0.0,0 STARLINK-5146,1 54073U 22136Y   23054.66272094  .00000292  00000-0  36444-4 0  9991,2 54073  53.2156 282.5104 0000886  99.7336 260.3756 15.08839154 19816,6917.883,95.438,540.361,539.135,0.0
54073.0,STARLINK-5146,PAYLOAD,2023-02-23 22:15:51,15.08845142,8.9e-05,53.2157,281.321,100.244,259.8652,0.00018191,2.609e-05,0.0,0 STARLINK-5146,1 54073U 22136Y   23054.92767883  .00002609  00000-0  18191-3 0  9997,2 54073  53.2157 281.3210 0000890 100.2440 259.8652 15.08845142 19374,6917.865,95.437,540.345,539.114,0.0
54073.0,STARLINK-5146,PAYLOAD,2023-02-24 14:09:42,15.0884154,8.96e-05,53.2153,278.3475,107.182,252.927,0.00016349,2.315e-05,0.0,0 STARLINK-5146,1 54073U 22136Y   23055.59008049  .00002315  00000-0  16349-3 0  9990,2 54073  53.2153 278.3475 0000896 107.1820 252.9270 15.08841540 19472,6917.876,95.437,540.361,539.121,0.0
